{
  "type": "FeatureCollection",
  "features": [
    {
      "type": "Feature",
      "properties": {
        "norad_id": 66491,
        "name": "STARLINK-35663",
        "group": "last-30-days",
        "lat": 2.311158409156465,
        "lon": 4.582015459521894,
        "alt_km": 344.05951823433315,
        "timestamp": "2025-12-02T06:27:51.801401+00:00",
        "meta_object_name": "STARLINK-35663",
        "meta_object_id": "2025-263G",
        "meta_epoch": "2025-12-01T20:00:01.999008",
        "meta_mean_motion": 15.75048309,
        "meta_eccentricity": 0.0002126,
        "meta_inclination": 42.9991,
        "meta_ra_of_asc_node": 189.7103,
        "meta_arg_of_pericenter": 268.1472,
        "meta_mean_anomaly": 313.2136,
        "meta_ephemeris_type": 0,
        "meta_classification_type": "U",
        "meta_norad_cat_id": 66491,
        "meta_element_set_no": 999,
        "meta_rev_at_epoch": 388,
        "meta_bstar": 3.4726e-05,
        "meta_mean_motion_dot": 4.861e-05,
        "meta_mean_motion_ddot": 0,
        "tle_line1": "1 66491U 25263G   25335.83335647  .00004861  00000+0  34726-4 0  9995",
        "tle_line2": "2 66491  42.9991 189.7103 0002126 268.1472 313.2136 15.75048309  3882"
      },
      "geometry": {
        "type": "Point",
        "coordinates": [
          4.582015459521894,
          2.311158409156465
        ]
      }
    },
    {
      "type": "Feature",
      "properties": {
        "norad_id": 66492,
        "name": "STARLINK-35673",
        "group": "last-30-days",
        "lat": 0.9961815299468576,
        "lon": 5.990362534066226,
        "alt_km": 344.1585079678407,
        "timestamp": "2025-12-02T06:27:51.801413+00:00",
        "meta_object_name": "STARLINK-35673",
        "meta_object_id": "2025-263H",
        "meta_epoch": "2025-12-01T20:00:01.999008",
        "meta_mean_motion": 15.75055494,
        "meta_eccentricity": 0.0001899,
        "meta_inclination": 42.9989,
        "meta_ra_of_asc_node": 189.7055,
        "meta_arg_of_pericenter": 266.5683,
        "meta_mean_anomaly": 316.7174,
        "meta_ephemeris_type": 0,
        "meta_classification_type": "U",
        "meta_norad_cat_id": 66492,
        "meta_element_set_no": 999,
        "meta_rev_at_epoch": 388,
        "meta_bstar": -5.2579e-05,
        "meta_mean_motion_dot": -8.552e-05,
        "meta_mean_motion_ddot": 0,
        "tle_line1": "1 66492U 25263H   25335.83335647 -.00008552  00000+0 -52579-4 0  9995",
        "tle_line2": "2 66492  42.9989 189.7055 0001899 266.5683 316.7174 15.75055494  3881"
      },
      "geometry": {
        "type": "Point",
        "coordinates": [
          5.990362534066226,
          0.9961815299468576
        ]
      }
    },
    {
      "type": "Feature",
      "properties": {
        "norad_id": 66493,
        "name": "STARLINK-35597",
        "group": "last-30-days",
        "lat": -0.3410834133121677,
        "lon": 7.421145207063393,
        "alt_km": 344.40061696907105,
        "timestamp": "2025-12-02T06:27:51.801423+00:00",
        "meta_object_name": "STARLINK-35597",
        "meta_object_id": "2025-263J",
        "meta_epoch": "2025-12-01T20:00:01.999008",
        "meta_mean_motion": 15.75129111,
        "meta_eccentricity": 0.0001919,
        "meta_inclination": 42.999,
        "meta_ra_of_asc_node": 189.7011,
        "meta_arg_of_pericenter": 271.1123,
        "meta_mean_anomaly": 314.0782,
        "meta_ephemeris_type": 0,
        "meta_classification_type": "U",
        "meta_norad_cat_id": 66493,
        "meta_element_set_no": 999,
        "meta_rev_at_epoch": 388,
        "meta_bstar": -0.00060953,
        "meta_mean_motion_dot": -0.00093449,
        "meta_mean_motion_ddot": 0,
        "tle_line1": "1 66493U 25263J   25335.83335647 -.00093449  00000+0 -60953-3 0  9999",
        "tle_line2": "2 66493  42.9990 189.7011 0001919 271.1123 314.0782 15.75129111  3884"
      },
      "geometry": {
        "type": "Point",
        "coordinates": [
          7.421145207063393,
          -0.3410834133121677
        ]
      }
    },
    {
      "type": "Feature",
      "properties": {
        "norad_id": 66494,
        "name": "STARLINK-35689",
        "group": "last-30-days",
        "lat": 3.608222607334065,
        "lon": 3.1897037530989722,
        "alt_km": 343.7536628479447,
        "timestamp": "2025-12-02T06:27:51.801433+00:00",
        "meta_object_name": "STARLINK-35689",
        "meta_object_id": "2025-263K",
        "meta_epoch": "2025-12-01T20:00:01.999008",
        "meta_mean_motion": 15.75056473,
        "meta_eccentricity": 0.0001813,
        "meta_inclination": 42.9989,
        "meta_ra_of_asc_node": 189.716,
        "meta_arg_of_pericenter": 260.7952,
        "meta_mean_anomaly": 318.6513,
        "meta_ephemeris_type": 0,
        "meta_classification_type": "U",
        "meta_norad_cat_id": 66494,
        "meta_element_set_no": 999,
        "meta_rev_at_epoch": 388,
        "meta_bstar": -3.4289e-05,
        "meta_mean_motion_dot": -5.746e-05,
        "meta_mean_motion_ddot": 0,
        "tle_line1": "1 66494U 25263K   25335.83335647 -.00005746  00000+0 -34289-4 0  9997",
        "tle_line2": "2 66494  42.9989 189.7160 0001813 260.7952 318.6513 15.75056473  3887"
      },
      "geometry": {
        "type": "Point",
        "coordinates": [
          3.1897037530989722,
          3.608222607334065
        ]
      }
    },
    {
      "type": "Feature",
      "properties": {
        "norad_id": 66495,
        "name": "STARLINK-35832",
        "group": "last-30-days",
        "lat": -1.6202150836035092,
        "lon": 8.790237155021666,
        "alt_km": 344.29763065981206,
        "timestamp": "2025-12-02T06:27:51.801444+00:00",
        "meta_object_name": "STARLINK-35832",
        "meta_object_id": "2025-263L",
        "meta_epoch": "2025-12-01T20:00:01.999008",
        "meta_mean_motion": 15.75054892,
        "meta_eccentricity": 0.0001435,
        "meta_inclination": 42.999,
        "meta_ra_of_asc_node": 189.6966,
        "meta_arg_of_pericenter": 261.1682,
        "meta_mean_anomaly": 325.9397,
        "meta_ephemeris_type": 0,
        "meta_classification_type": "U",
        "meta_norad_cat_id": 66495,
        "meta_element_set_no": 999,
        "meta_rev_at_epoch": 388,
        "meta_bstar": 5.4158e-05,
        "meta_mean_motion_dot": 7.855e-05,
        "meta_mean_motion_ddot": 0,
        "tle_line1": "1 66495U 25263L   25335.83335647  .00007855  00000+0  54158-4 0  9996",
        "tle_line2": "2 66495  42.9990 189.6966 0001435 261.1682 325.9397 15.75054892  3882"
      },
      "geometry": {
        "type": "Point",
        "coordinates": [
          8.790237155021666,
          -1.6202150836035092
        ]
      }
    },
    {
      "type": "Feature",
      "properties": {
        "norad_id": 66496,
        "name": "STARLINK-35909",
        "group": "last-30-days",
        "lat": -2.9159169694134164,
        "lon": 10.178985760026514,
        "alt_km": 344.812808262659,
        "timestamp": "2025-12-02T06:27:51.801453+00:00",
        "meta_object_name": "STARLINK-35909",
        "meta_object_id": "2025-263M",
        "meta_epoch": "2025-12-01T20:00:01.999008",
        "meta_mean_motion": 15.75056168,
        "meta_eccentricity": 0.0001646,
        "meta_inclination": 42.9989,
        "meta_ra_of_asc_node": 189.6912,
        "meta_arg_of_pericenter": 276.6595,
        "meta_mean_anomaly": 312.3821,
        "meta_ephemeris_type": 0,
        "meta_classification_type": "U",
        "meta_norad_cat_id": 66496,
        "meta_element_set_no": 999,
        "meta_rev_at_epoch": 388,
        "meta_bstar": -0.00023784,
        "meta_mean_motion_dot": -0.0003688,
        "meta_mean_motion_ddot": 0,
        "tle_line1": "1 66496U 25263M   25335.83335647 -.00036880  00000+0 -23784-3 0  9999",
        "tle_line2": "2 66496  42.9989 189.6912 0001646 276.6595 312.3821 15.75056168  3880"
      },
      "geometry": {
        "type": "Point",
        "coordinates": [
          10.178985760026514,
          -2.9159169694134164
        ]
      }
    },
    {
      "type": "Feature",
      "properties": {
        "norad_id": 66497,
        "name": "STARLINK-35899",
        "group": "last-30-days",
        "lat": -4.22851701951867,
        "lon": 11.591391185400855,
        "alt_km": 344.6754712095935,
        "timestamp": "2025-12-02T06:27:51.801464+00:00",
        "meta_object_name": "STARLINK-35899",
        "meta_object_id": "2025-263N",
        "meta_epoch": "2025-12-01T20:00:01.999008",
        "meta_mean_motion": 15.74920511,
        "meta_eccentricity": 0.000163,
        "meta_inclination": 42.9989,
        "meta_ra_of_asc_node": 189.6859,
        "meta_arg_of_pericenter": 263.9975,
        "meta_mean_anomaly": 327.0761,
        "meta_ephemeris_type": 0,
        "meta_classification_type": "U",
        "meta_norad_cat_id": 66497,
        "meta_element_set_no": 999,
        "meta_rev_at_epoch": 388,
        "meta_bstar": 0.00081632,
        "meta_mean_motion_dot": 0.00126153,
        "meta_mean_motion_ddot": 0,
        "tle_line1": "1 66497U 25263N   25335.83335647  .00126153  00000+0  81632-3 0  9997",
        "tle_line2": "2 66497  42.9989 189.6859 0001630 263.9975 327.0761 15.74920511  3882"
      },
      "geometry": {
        "type": "Point",
        "coordinates": [
          11.591391185400855,
          -4.22851701951867
        ]
      }
    }
  ]
}